{"type": "FeatureCollection", "features": [ {"type": "Feature", "properties": {"norad_id": 31038, "name": "FENGYUN 1C DEB", "group": "fengyun-1c-debris", "lat": -21.832614616949215, "lon": 86.62363657476257, "alt_km": 792.7035812815329, "timestamp": "2025-12-24T05:51:19.888767+00:00", "meta": {"OBJECT_NAME": "FENGYUN 1C DEB", "OBJECT_ID": "1999-025BEG", "EPOCH": "2025-12-23T16:40:19.885440", "MEAN_MOTION": 14.45865006, "ECCENTRICITY": 0.00844943, "INCLINATION": 99.0132, "RA_OF_ASC_NODE": 82.3944, "ARG_OF_PERICENTER": 196.0333, "MEAN_ANOMALY": 163.818, "EPHEMERIS_TYPE": 0, "CLASSIFICATION_TYPE": "U", "NORAD_CAT_ID": 31038, "ELEMENT_SET_NO": 999, "REV_AT_EPOCH": 98393, "BSTAR": 0.00054979108, "MEAN_MOTION_DOT": 1.988e-05, "MEAN_MOTION_DDOT": 0}, "tle": {"line1": "1 31038U 99025BEG 25357.69467460  .00001988  00000+0  54979-3 0  9996", "line2": "2 31038  99.0132  82.3944 0084494 196.0333 163.8180 14.45865006983933"}}, "geometry": {"type": "Point", "coordinates": [86.62363657476257, -21.832614616949215]}}, {"type": "Feature", "properties": {"norad_id": 31040, "name": "FENGYUN 1C DEB", "group": "fengyun-1c-debris", "lat": -81.31797172296244, "lon": 81.5098395109137, "alt_km": 854.6020006493709, "timestamp": "2025-12-24T05:51:19.888776+00:00", "meta": {"OBJECT_NAME": "FENGYUN 1C DEB", "OBJECT_ID": "1999-025BEJ", "EPOCH": "2025-12-23T10:41:01.956192", "MEAN_MOTION": 14.1768433, "ECCENTRICITY": 0.00628515, "INCLINATION": 98.6587, "RA_OF_ASC_NODE": 347.0224, "ARG_OF_PERICENTER": 163.3003, "MEAN_ANOMALY": 350.8475, "EPHEMERIS_TYPE": 0, "CLASSIFICATION_TYPE": "U", "NORAD_CAT_ID": 31040, "ELEMENT_SET_NO": 999, "REV_AT_EPOCH": 96858, "BSTAR": 0.00025456963, "MEAN_MOTION_DOT": 4.86e-06, "MEAN_MOTION_DDOT": 0}, "tle": {"line1": "1 31040U 99025BEJ 25357.44516153  .00000486  00000+0  25457-3 0  9997", "line2": "2 31040  98.6587 347.0224 0062851 163.3003 350.8475 14.17684330968588"}}, "geometry": {"type": "Point", "coordinates": [81.5098395109137, -81.31797172296244]}}, {"type": "Feature", "properties": {"norad_id": 31041, "name": "FENGYUN 1C DEB", "group": "fengyun-1c-debris", "lat": 24.52007264193258, "lon": -148.45620686690245, "alt_km": 873.9382761078059, "timestamp": "2025-12-24T05:51:19.888788+00:00", "meta": {"OBJECT_NAME": "FENGYUN 1C DEB", "OBJECT_ID": "1999-025BEK", "EPOCH": "2025-12-22T20:56:29.156352", "MEAN_MOTION": 14.17922068, "ECCENTRICITY": 0.00876067, "INCLINATION": 99.2038, "RA_OF_ASC_NODE": 25.8816, "ARG_OF_PERICENTER": 291.3542, "MEAN_ANOMALY": 67.8299, "EPHEMERIS_TYPE": 0, "CLASSIFICATION_TYPE": "U", "NORAD_CAT_ID": 31041, "ELEMENT_SET_NO": 999, "REV_AT_EPOCH": 95633, "BSTAR": 0.0022585931, "MEAN_MOTION_DOT": 4.751e-05, "MEAN_MOTION_DDOT": 0}, "tle": {"line1": "1 31041U 99025BEK 25356.87255968  .00004751  00000+0  22586-2 0  9996", "line2": "2 31041  99.2038  25.8816 0087606 291.3542  67.8299 14.17922068956332"}}, "geometry": {"type": "Point", "coordinates": [-148.45620686690245, 24.52007264193258]}}, {"type": "Feature", "properties": {"norad_id": 31043, "name": "FENGYUN 1C DEB", "group": "fengyun-1c-debris", "lat": 45.95187095821201, "lon": -155.09861338918085, "alt_km": 888.8199747017688, "timestamp": "2025-12-24T05:51:19.888799+00:00", "meta": {"OBJECT_NAME": "FENGYUN 1C DEB", "OBJECT_ID": "1999-025BEM", "EPOCH": "2025-12-23T00:22:41.496384", "MEAN_MOTION": 14.08444786, "ECCENTRICITY": 0.00409536, "INCLINATION": 98.7635, "RA_OF_ASC_NODE": 14.5324, "ARG_OF_PERICENTER": 334.9072, "MEAN_ANOMALY": 54.0979, "EPHEMERIS_TYPE": 0, "CLASSIFICATION_TYPE": "U", "NORAD_CAT_ID": 31043, "ELEMENT_SET_NO": 999, "REV_AT_EPOCH": 96132, "BSTAR": 0.00038358034, "MEAN_MOTION_DOT": 6.2e-06, "MEAN_MOTION_DDOT": 0}, "tle": {"line1": "1 31043U 99025BEM 25357.01575806  .00000620  00000+0  38358-3 0  9997", "line2": "2 31043  98.7635  14.5324 0040953 334.9072  54.0979 14.08444786961320"}}, "geometry": {"type": "Point", "coordinates": [-155.09861338918085, 45.95187095821201]}}, {"type": "Feature", "properties": {"norad_id": 31046, "name": "FENGYUN 1C DEB", "group": "fengyun-1c-debris", "lat": 81.0252699067026, "lon": 28.415614855760452, "alt_km": 642.7495275267247, "timestamp": "2025-12-24T05:51:19.888809+00:00", "meta": {"OBJECT_NAME": "FENGYUN 1C DEB", "OBJECT_ID": "1999-025BEQ", "EPOCH": "2025-12-20T21:39:52.562016", "MEAN_MOTION": 14.64082438, "ECCENTRICITY": 0.0045404, "INCLINATION": 98.9685, "RA_OF_ASC_NODE": 115.3082, "ARG_OF_PERICENTER": 77.5729, "MEAN_ANOMALY": 51.1771, "EPHEMERIS_TYPE": 0, "CLASSIFICATION_TYPE": "U", "NORAD_CAT_ID": 31046, "ELEMENT_SET_NO": 999, "REV_AT_EPOCH": 96762, "BSTAR": 0.0021927, "MEAN_MOTION_DOT": 0.00011646, "MEAN_MOTION_DDOT": 0}, "tle": {"line1": "1 31046U 99025BEQ 25354.90269169  .00011646  00000+0  21927-2 0  9990", "line2": "2 31046  98.9685 115.3082 0045404  77.5729  51.1771 14.64082438967627"}}, "geometry": {"type": "Point", "coordinates": [28.415614855760452, 81.0252699067026]}}, {"type": "Feature", "properties": {"norad_id": 31047, "name": "FENGYUN 1C DEB", "group": "fengyun-1c-debris", "lat": -31.450781197010425, "lon": 0.743285121504627, "alt_km": 871.0095074577066, "timestamp": "2025-12-24T05:51:19.888819+00:00", "meta": {"OBJECT_NAME": "FENGYUN 1C DEB", "OBJECT_ID": "1999-025BER", "EPOCH": "2025-12-22T12:16:57.847296", "MEAN_MOTION": 14.13857139, "ECCENTRICITY": 0.00261016, "INCLINATION": 98.7012, "RA_OF_ASC_NODE": 353.6831, "ARG_OF_PERICENTER": 150.1278, "MEAN_ANOMALY": 6.368, "EPHEMERIS_TYPE": 0, "CLASSIFICATION_TYPE": "U", "NORAD_CAT_ID": 31047, "ELEMENT_SET_NO": 999, "REV_AT_EPOCH": 96497, "BSTAR": 0.00037194236, "MEAN_MOTION_DOT": 6.64e-06, "MEAN_MOTION_DDOT": 0}, "tle": {"line1": "1 31047U 99025BER 25356.51178064  .00000664  00000+0  37194-3 0  9995", "line2": "2 31047  98.7012 353.6831 0026101 150.1278   6.3680 14.13857139964977"}}, "geometry": {"type": "Point", "coordinates": [0.743285121504627, -31.450781197010425]}}, {"type": "Feature", "properties": {"norad_id": 31051, "name": "FENGYUN 1C DEB", "group": "fengyun-1c-debris", "lat": -17.70555911451591, "lon": 31.280660947050595, "alt_km": 908.1223583562978, "timestamp": "2025-12-24T05:51:19.888829+00:00", "meta": {"OBJECT_NAME": "FENGYUN 1C DEB", "OBJECT_ID": "1999-025BEV", "EPOCH": "2025-12-12T21:48:30.367584", "MEAN_MOTION": 14.03033745, "ECCENTRICITY": 0.00534524, "INCLINATION": 98.8183, "RA_OF_ASC_NODE": 17.4591, "ARG_OF_PERICENTER": 135.0078, "MEAN_ANOMALY": 225.5438, "EPHEMERIS_TYPE": 0, "CLASSIFICATION_TYPE": "U", "NORAD_CAT_ID": 31051, "ELEMENT_SET_NO": 999, "REV_AT_EPOCH": 63821, "BSTAR": 0.00016986752, "MEAN_MOTION_DOT": 2.25e-06, "MEAN_MOTION_DDOT": 0}, "tle": {"line1": "1 31051U 99025BEV 25346.90868481  .00000225  00000+0  16987-3 0  9991", "line2": "2 31051  98.8183  17.4591 0053452 135.0078 225.5438 14.03033745638218"}}, "geometry": {"type": "Point", "coordinates": [31.280660947050595, -17.70555911451591]}}, {"type": "Feature", "properties": {"norad_id": 31053, "name": "FENGYUN 1C DEB", "group": "fengyun-1c-debris", "lat": 3.6694330244283697, "lon": -59.544594849575816, "alt_km": 1059.4518858939673, "timestamp": "2025-12-24T05:51:19.888839+00:00", "meta": {"OBJECT_NAME": "FENGYUN 1C DEB", "OBJECT_ID": "1999-025BEX", "EPOCH": "2025-12-22T02:25:18.690528", "MEAN_MOTION": 13.75902052, "ECCENTRICITY": 0.03088253, "INCLINATION": 98.7943, "RA_OF_ASC_NODE": 117.9046, "ARG_OF_PERICENTER": 69.9977, "MEAN_ANOMALY": 293.4146, "EPHEMERIS_TYPE": 0, "CLASSIFICATION_TYPE": "U", "NORAD_CAT_ID": 31053, "ELEMENT_SET_NO": 999, "REV_AT_EPOCH": 93605, "BSTAR": 0.0012358635, "MEAN_MOTION_DOT": 1.661e-05, "MEAN_MOTION_DDOT": 0}, "tle": {"line1": "1 31053U 99025BEX 25356.10091077  .00001661  00000+0  12359-2 0  9998", "line2": "2 31053  98.7943 117.9046 0308825  69.9977 293.4146 13.75902052936051"}}, "geometry": {"type": "Point", "coordinates": [-59.544594849575816, 3.6694330244283697]}}, {"type": "Feature", "properties": {"norad_id": 31054, "name": "FENGYUN 1C DEB", "group": "fengyun-1c-debris", "lat": 15.22436012774201, "lon": 8.536323285866278, "alt_km": 850.6202326684079, "timestamp": "2025-12-24T05:51:19.888851+00:00", "meta": {"OBJECT_NAME": "FENGYUN 1C DEB", "OBJECT_ID": "1999-025BEY", "EPOCH": "2025-12-23T06:16:54.730848", "MEAN_MOTION": 14.12175852, "ECCENTRICITY": 0.00108232, "INCLINATION": 98.6896, "RA_OF_ASC_NODE": 9.9697, "ARG_OF_PERICENTER": 93.2329, "MEAN_ANOMALY": 331.6743, "EPHEMERIS_TYPE": 0, "CLASSIFICATION_TYPE": "U", "NORAD_CAT_ID": 31054, "ELEMENT_SET_NO": 999, "REV_AT_EPOCH": 96912, "BSTAR": 0.00015393107, "MEAN_MOTION_DOT": 2.4e-06, "MEAN_MOTION_DDOT": 0}, "tle": {"line1": "1 31054U 99025BEY 25357.26174457  .00000240  00000+0  15393-3 0  9995", "line2": "2 31054  98.6896   9.9697 0010823  93.2329 331.6743 14.12175852969123"}}, "geometry": {"type": "Point", "coordinates": [8.536323285866278, 15.22436012774201]}}, {"type": "Feature", "properties": {"norad_id": 31055, "name": "FENGYUN 1C DEB", "group": "fengyun-1c-debris", "lat": 63.085559559037286, "lon": 11.476502897573088, "alt_km": 869.2633742992557, "timestamp": "2025-12-24T05:51:19.888861+00:00", "meta": {"OBJECT_NAME": "FENGYUN 1C DEB", "OBJECT_ID": "1999-025BEZ", "EPOCH": "2025-12-21T13:34:49.113408", "MEAN_MOTION": 14.10387313, "ECCENTRICITY": 0.0024194, "INCLINATION": 98.7589, "RA_OF_ASC_NODE": 26.5478, "ARG_OF_PERICENTER": 246.0926, "MEAN_ANOMALY": 268.0578, "EPHEMERIS_TYPE": 0, "CLASSIFICATION_TYPE": "U", "NORAD_CAT_ID": 31055, "ELEMENT_SET_NO": 999, "REV_AT_EPOCH": 96246, "BSTAR": 0.0003331, "MEAN_MOTION_DOT": 5.5e-06, "MEAN_MOTION_DDOT": 0}, "tle": {"line1": "1 31055U 99025BEZ 25355.56584622  .00000550  00000+0  33310-3 0  9999", "line2": "2 31055  98.7589  26.5478 0024194 246.0926 268.0578 14.10387313962467"}}, "geometry": {"type": "Point", "coordinates": [11.476502897573088, 63.085559559037286]}}]}